{
  "links" : {
    "next" : "https://api.nasa.gov/neo/rest/v1/feed?start_date=2015-11-09&end_date=2015-11-09&detailed=true&api_key=t0TVs3DtDT2H8Oy2Zy8m2eVrNsAVKAexjcZXUckd",
    "prev" : "https://api.nasa.gov/neo/rest/v1/feed?start_date=2015-11-07&end_date=2015-11-07&detailed=true&api_key=t0TVs3DtDT2H8Oy2Zy8m2eVrNsAVKAexjcZXUckd",
    "self" : "https://api.nasa.gov/neo/rest/v1/feed?start_date=2015-11-08&end_date=2015-11-08&detailed=true&api_key=t0TVs3DtDT2H8Oy2Zy8m2eVrNsAVKAexjcZXUckd"
  },
  "element_count" : 12,
  "near_earth_objects" : {
    "2015-11-08" : [ {
      "links" : {
        "self" : "https://api.nasa.gov/neo/rest/v1/neo/3617713?api_key=t0TVs3DtDT2H8Oy2Zy8m2eVrNsAVKAexjcZXUckd"
      },
      "neo_reference_id" : "3617713",
      "name" : "(2012 VS76)",
      "nasa_jpl_url" : "http://ssd.jpl.nasa.gov/sbdb.cgi?sstr=3617713",
      "absolute_magnitude_h" : 26.9,
      "estimated_diameter" : {
        "kilometers" : {
          "estimated_diameter_min" : 0.0110803882,
          "estimated_diameter_max" : 0.0247765013
        },
        "meters" : {
          "estimated_diameter_min" : 11.0803882126,
          "estimated_diameter_max" : 24.7765012606
        },
        "miles" : {
          "estimated_diameter_min" : 0.0068850319,
          "estimated_diameter_max" : 0.0153953994
        },
        "feet" : {
          "estimated_diameter_min" : 36.3529808636,
          "estimated_diameter_max" : 81.2877363957
        }
      },
      "is_potentially_hazardous_asteroid" : false,
      "close_approach_data" : [ {
        "close_approach_date" : "2015-11-08",
        "epoch_date_close_approach" : 1446969600000,
        "relative_velocity" : {
          "kilometers_per_second" : "18.6898436469",
          "kilometers_per_hour" : "67283.4371288263",
          "miles_per_hour" : "41807.3112537421"
        },
        "miss_distance" : {
          "astronomical" : "0.2351259418",
          "lunar" : "91.4639892578",
          "kilometers" : "35174340",
          "miles" : "21856322"
        },
        "orbiting_body" : "Earth"
      } ],
      "orbital_data" : {
        "orbit_id" : "7",
        "orbit_determination_date" : "2017-04-06 08:48:00",
        "orbit_uncertainty" : "6",
        "minimum_orbit_intersection" : ".00190346",
        "jupiter_tisserand_invariant" : "6.055",
        "epoch_osculation" : "2458000.5",
        "eccentricity" : ".3862441671716078",
        "semi_major_axis" : ".991089878325892",
        "inclination" : ".8057978515425388",
        "ascending_node_longitude" : "242.3344398777288",
        "orbital_period" : "360.3860636105049",
        "perihelion_distance" : ".6082871936796979",
        "perihelion_argument" : "284.4250658581834",
        "aphelion_distance" : "1.373892562972086",
        "perihelion_time" : "2458118.235928402428",
        "mean_anomaly" : "242.3901962238961",
        "mean_motion" : ".9989287498893903",
        "equinox" : "J2000"
      }
    }, {
      "links" : {
        "self" : "https://api.nasa.gov/neo/rest/v1/neo/3621026?api_key=t0TVs3DtDT2H8Oy2Zy8m2eVrNsAVKAexjcZXUckd"
      },
      "neo_reference_id" : "3621026",
      "name" : "(2012 XS134)",
      "nasa_jpl_url" : "http://ssd.jpl.nasa.gov/sbdb.cgi?sstr=3621026",
      "absolute_magnitude_h" : 18.4,
      "estimated_diameter" : {
        "kilometers" : {
          "estimated_diameter_min" : 0.5553349116,
          "estimated_diameter_max" : 1.2417666126
        },
        "meters" : {
          "estimated_diameter_min" : 555.334911581,
          "estimated_diameter_max" : 1241.766612574
        },
        "miles" : {
          "estimated_diameter_min" : 0.3450690093,
          "estimated_diameter_max" : 0.7715977618
        },
        "feet" : {
          "estimated_diameter_min" : 1821.9649913114,
          "estimated_diameter_max" : 4074.0375731972
        }
      },
      "is_potentially_hazardous_asteroid" : false,
      "close_approach_data" : [ {
        "close_approach_date" : "2015-11-08",
        "epoch_date_close_approach" : 1446969600000,
        "relative_velocity" : {
          "kilometers_per_second" : "16.4243361955",
          "kilometers_per_hour" : "59127.6103039375",
          "miles_per_hour" : "36739.5976357994"
        },
        "miss_distance" : {
          "astronomical" : "0.4364949349",
          "lunar" : "169.7965393066",
          "kilometers" : "65298716",
          "miles" : "40574740"
        },
        "orbiting_body" : "Earth"
      } ],
      "orbital_data" : {
        "orbit_id" : "46",
        "orbit_determination_date" : "2017-04-06 08:47:34",
        "orbit_uncertainty" : "0",
        "minimum_orbit_intersection" : ".317129",
        "jupiter_tisserand_invariant" : "3.468",
        "epoch_osculation" : "2458000.5",
        "eccentricity" : ".4692095210846854",
        "semi_major_axis" : "2.169421570781846",
        "inclination" : "20.3799036282423",
        "ascending_node_longitude" : "73.70017298273082",
        "orbital_period" : "1167.116900648575",
        "perihelion_distance" : "1.15150831452451",
        "perihelion_argument" : "290.490662389849",
        "aphelion_distance" : "3.187334827039182",
        "perihelion_time" : "2458476.509540146927",
        "mean_anomaly" : "213.1737186243589",
        "mean_motion" : ".3084523922153346",
        "equinox" : "J2000"
      }
    }, {
      "links" : {
        "self" : "https://api.nasa.gov/neo/rest/v1/neo/3634615?api_key=t0TVs3DtDT2H8Oy2Zy8m2eVrNsAVKAexjcZXUckd"
      },
      "neo_reference_id" : "3634615",
      "name" : "(2013 GS66)",
      "nasa_jpl_url" : "http://ssd.jpl.nasa.gov/sbdb.cgi?sstr=3634615",
      "absolute_magnitude_h" : 21.0,
      "estimated_diameter" : {
        "kilometers" : {
          "estimated_diameter_min" : 0.1677084622,
          "estimated_diameter_max" : 0.3750075218
        },
        "meters" : {
          "estimated_diameter_min" : 167.7084621628,
          "estimated_diameter_max" : 375.0075217981
        },
        "miles" : {
          "estimated_diameter_min" : 0.1042091748,
          "estimated_diameter_max" : 0.2330187988
        },
        "feet" : {
          "estimated_diameter_min" : 550.2246310023,
          "estimated_diameter_max" : 1230.3396778159
        }
      },
      "is_potentially_hazardous_asteroid" : true,
      "close_approach_data" : [ {
        "close_approach_date" : "2015-11-08",
        "epoch_date_close_approach" : 1446969600000,
        "relative_velocity" : {
          "kilometers_per_second" : "20.3215381975",
          "kilometers_per_hour" : "73157.53751087",
          "miles_per_hour" : "45457.248793907"
        },
        "miss_distance" : {
          "astronomical" : "0.25054256",
          "lunar" : "97.4610519409",
          "kilometers" : "37480632",
          "miles" : "23289386"
        },
        "orbiting_body" : "Earth"
      } ],
      "orbital_data" : {
        "orbit_id" : "21",
        "orbit_determination_date" : "2017-04-06 08:46:11",
        "orbit_uncertainty" : "1",
        "minimum_orbit_intersection" : ".0227551",
        "jupiter_tisserand_invariant" : "3.596",
        "epoch_osculation" : "2458000.5",
        "eccentricity" : ".5825419003651459",
        "semi_major_axis" : "2.011801300557808",
        "inclination" : "2.437827104568518",
        "ascending_node_longitude" : "204.7114269725453",
        "orbital_period" : "1042.259959323429",
        "perihelion_distance" : ".8398427477737905",
        "perihelion_argument" : "272.84470517941",
        "aphelion_distance" : "3.183759853341826",
        "perihelion_time" : "2458418.028186252472",
        "mean_anomaly" : "215.784398406265",
        "mean_motion" : ".3454032717842198",
        "equinox" : "J2000"
      }
    } ]
  }
}